FLOCK 2K-36             
1 42876U 17042BD  17362.72681560  .00001935  00000-0  59012-4 0  9994
2 42876  96.9949 262.9826 0013041   6.8856 353.2565 15.35016112 25474
FLOCK 2K-35             
1 42877U 17042BE  17362.46461801  .00002297  00000-0  69245-4 0  9991
2 42877  96.9946 262.7344 0012907   7.6482 352.4957 15.35192178 25438
FLOCK 2K-34             
1 42878U 17042BF  17362.52859487  .00002374  00000-0  71696-4 0  9999
2 42878  96.9946 262.7931 0013066   8.3297 351.8162 15.35106019 25441
FLOCK 2K-33             
1 42879U 17042BG  17361.80866460  .00007435  00000-0  21958-3 0  9997
2 42879  96.9942 262.1165 0013264  10.8674 349.2855 15.35142618 25331
FLOCK 2K-28             
1 42880U 17042BH  17362.45597759  .00002182  00000-0  68517-4 0  9990
2 42880  96.9950 262.6057 0013295   7.9364 352.2088 15.33945916 25426
LEMUR-2-ARTFISCHER      
1 42881U 17042BJ  17362.03133999  .00004627  00000-0  13956-3 0  9999
2 42881  96.9970 262.3278 0014018  10.8807 349.2738 15.34661041 25355
FLOCK 2K-27             
1 42882U 17042BK  17362.45923468  .00002866  00000-0  85941-4 0  9991
2 42882  96.9947 262.7431 0013341   9.1719 350.9767 15.35167580 25436
FLOCK 2K-26             
1 42883U 17042BL  17362.52193448  .00009471  00000-0  27893-3 0  9997
2 42883  96.9943 262.8032 0013219   7.1869 352.9562 15.35156122 25445
FLOCK 2K-25             
1 42884U 17042BM  17362.72278814  .00002156  00000-0  65290-4 0  9998
2 42884  96.9944 262.9780 0013100   7.3429 352.8005 15.35121406 25472
FLOCK 2K-20             
1 42885U 17042BN  17362.71621743  .00008567  00000-0  25251-3 0  9995
2 42885  96.9945 262.9938 0013244   6.2200 353.9206 15.35160516 25473
FLOCK 2K-19             
1 42886U 17042BP  17362.71927445  .00008851  00000-0  26082-3 0  9993
2 42886  96.9946 262.9921 0013270   7.0219 353.1208 15.35158877 25476
FLOCK 2K-18             
1 42887U 17042BQ  17362.70753156  .00009010  00000-0  26534-3 0  9999
2 42887  96.9945 263.0019 0013272   5.4451 354.6935 15.35171975 25475
FLOCK 2K-17             
1 42888U 17042BR  17361.79988113  .00011458  00000-0  33741-3 0  9998
2 42888  96.9936 262.1206 0013367   7.7249 352.4198 15.35110482 25337
FLOCK 2K-16             
1 42889U 17042BS  17361.67063068  .00011744  00000-0  34597-3 0  9997
2 42889  96.9942 262.0073 0013036   8.2456 351.9000 15.35093923 25319
FLOCK 2K-15             
1 42890U 17042BT  17361.72836013  .00011396  00000-0  33535-3 0  9997
2 42890  96.9949 262.0871 0013286   8.6523 351.4948 15.35134424 25329
FLOCK 2K-13             
1 42891U 17042BU  17361.80277010  .00001942  00000-0  59252-4 0  9994
2 42891  96.9945 262.1259 0013473   4.7847 355.3524 15.34988849 25332
FLOCK 2K-14             
1 42892U 17042BV  17362.51351817  .00009116  00000-0  26877-3 0  9999
2 42892  96.9941 262.8069 0013193   4.3663 355.7694 15.35133030 25445
FLOCK 2K-12             
1 42893U 17042BW  17362.50753932  .00009062  00000-0  26692-3 0  9998
2 42893  96.9949 262.8277 0013329   6.5951 353.5467 15.35163440 25442
FLOCK 2K-11             
1 42894U 17042BX  17362.71051398  .00009148  00000-0  26947-3 0  9997
2 42894  96.9947 263.0022 0013122   1.4234 358.7046 15.35161742 25477
FLOCK 2K-10             
1 42895U 17042BY  17362.37846894  .00008615  00000-0  25404-3 0  9998
2 42895  96.9943 262.6914 0013328   4.8740 355.2632 15.35142299 25420
FLOCK 2K-09             
1 42896U 17042BZ  17362.50574957  .00006288  00000-0  18598-3 0  9992
2 42896  96.9950 262.8282 0013200   4.3385 355.7971 15.35155313 25611
FLOCK 2K-06             
1 42897U 17042CA  17362.67368791  .00009224  00000-0  27159-3 0  9994
2 42897  96.9945 262.9026 0012053  17.7227 342.4435 15.35188425 25462
SILU-1 (SILKROAD 1)     
1 42903U 17021F   17362.76606624  .00022345  00000-0  22554-3 0  9992
2 42903  42.7803 274.9421 0009139 192.9810 267.7192 15.64844431 23172
FLOCK 3M-1              
1 42995U 17068J   17362.88392852  .00000871  00000-0  45818-4 0  9991
2 42995  97.3443 115.3729 0018286  27.8622 332.3587 15.18078870  8791
FLOCK 3M-3              
1 42996U 17068K   17362.87781409  .00000883  00000-0  46243-4 0  9997
2 42996  97.3399 115.3455 0017664  28.6854 331.5348 15.18240120  8798
FLOCK 3M-4              
1 42997U 17068L   17362.54482628 -.00137486  00000-0 -67898-2 0  9992
2 42997  97.3558 115.1951 0017938  29.9519 330.2737 15.18356301  8743
FLOCK 3M-2              
1 42998U 17068M   17362.86332148  .00000932  00000-0  48126-4 0  9997
2 42998  97.3512 115.4546 0015614  26.3743 333.8283 15.18624938  8790
ECAMSAT                 
1 43019U 98067NG  17362.84660738  .00005839  00000-0  91642-4 0  9999
2 43019  51.6387 147.6701 0004813 256.3491 103.6964 15.55245368 92027
ASTERIA                 
1 43020U 98067NH  17362.84223073  .00008494  00000-0  12861-3 0  9993
2 43020  51.6390 147.6427 0002170 247.9303 112.1458 15.55558178  5944
DELLINGR (RBLE)         
1 43021U 98067NJ  17362.84712492  .00006307  00000-0  98366-4 0  9998
2 43021  51.6388 147.6748 0001940 246.5641 113.5146 15.55258985  5944
TECHEDSAT 6             
1 43026U 98067NK  17362.86051533  .00058232  00000-0  72894-3 0  9998
2 43026  51.6373 147.0143 0002504 267.1358  92.9348 15.59215545  5850
OSIRIS-3U               
1 43027U 98067NL  17362.89308357  .00021782  00000-0  30724-3 0  9997
2 43027  51.6381 147.2331 0003637 228.8625 131.2053 15.56521007  5838
2017-071E               
1 43041U 17071E   17362.77491359  .00005788  00000-0  16159-3 0  9995
2 43041  51.6379 150.9094 0000320 167.6413 192.4579 15.38198536  5669
2017-071F               
1 43042U 17071F   17362.78124769  .00003325  00000-0  98814-4 0  9999
2 43042  51.6380 150.9500 0005400  15.5294 344.5855 15.37706158  3373
2017-071G               
1 43043U 17071G   17362.00128996  .00003902  00000-0  11411-3 0  9999
2 43043  51.6381 154.7421 0005344  12.7907 347.3211 15.37708740  3226
2017-071H               
1 43044U 17071H   17361.93542759  .00005476  00000-0  15549-3 0  9992
2 43044  51.6380 155.0527 0005146  11.6436 348.4666 15.37789085  3218
2017-071J               
1 43045U 17071J   17362.45069356  .00006265  00000-0  17423-3 0  9998
2 43045  51.6376 152.4943 0004258   2.8783 357.2225 15.38171381  3334
2017-071K               
1 43046U 17071K   17362.77474772  .00006304  00000-0  17503-3 0  9999
2 43046  51.6387 150.9100 0004043   1.7367 358.3630 15.38209169  3397
2017-071L               
1 43047U 17071L   17362.71547069  .00005590  00000-0  15832-3 0  9993
2 43047  51.6376 151.2615 0003631  47.2058 312.9230 15.37823972  3378
2017-071M               
1 43048U 17071M   17362.45555963  .00005568  00000-0  15790-3 0  9995
2 43048  51.6383 152.5265 0003545  46.5130 313.6148 15.37791439  3333
2017-071N               
1 43049U 17071N   17362.84356468  .00003353  00000-0  98987-4 0  9998
2 43049  51.6381 150.6166 0002961  39.9278 320.1923 15.37882436  3344
2017-071P               
1 43050U 17071P   17362.71312908  .00004475  00000-0  12849-3 0  9995
2 43050  51.6384 151.2465 0002828  36.8903 323.2274 15.37907581  3321
2017-071Q               
1 43051U 17071Q   17362.77982286  .00005102  00000-0  14528-3 0  9998
2 43051  51.6378 150.9410 0001776 137.6902 222.4219 15.37855392  3333
2017-071R               
1 43052U 17071R   17362.77785670  .00003709  00000-0  10818-3 0  9996
2 43052  51.6384 150.9288 0002839  36.6349 323.4828 15.37940151  3334
2017-071S               
1 43053U 17071S   17362.77998488  .00005650  00000-0  15993-3 0  9996
2 43053  51.6378 150.9422 0001799 138.7604 221.3516 15.37818563  3342
2017-071T               
1 43054U 17071T   17362.51530324  .00005950  00000-0  16602-3 0  9991
2 43054  51.6378 152.1759 0000369 159.6239 200.4759 15.38159229  3309
